HULIANWANG DIGUI-81     
1 65313U 25187J   26064.15577472 -.00000098  00000+0  56002-4 0  9991
2 65313  50.0056 218.9376 0001056 136.8232 223.2723 13.29341391 25878
HULIANWANG DIGUI-82     
1 65817U 25220A   26064.13461325  .00000057  00000+0  98708-4 0  9998
2 65817  86.4896  79.0050 0002255 100.8477 259.2911 13.24421805 21149
HULIANWANG DIGUI-83     
1 65818U 25220B   26064.12710766  .00000051  00000+0  84147-4 0  9990
2 65818  86.4919  79.0378 0002249 100.8265 259.3123 13.24421000 21140
HULIANWANG DIGUI-84     
1 65819U 25220C   26064.11952581  .00000041  00000+0  61871-4 0  9991
2 65819  86.4856  78.9314 0002241  99.9096 260.2291 13.24421440 21146
HULIANWANG DIGUI-85     
1 65820U 25220D   26064.11192495  .00000023  00000+0  19315-4 0  9999
2 65820  86.4917  79.0280 0002237 101.1656 258.9729 13.24421946 21144
HULIANWANG DIGUI-86     
1 65821U 25220E   26064.18000557  .00000022  00000+0  17920-4 0  9993
2 65821  86.4896  78.9637 0002233 100.8664 259.2721 13.24420848 21153
HULIANWANG DIGUI-87     
1 65995U 25231A   26064.11699160 -.00000098  00000+0  55998-4 0  9995
2 65995  49.9990 189.1242 0000610 182.3709 177.7160 13.29330240 19040
HULIANWANG DIGUI-88     
1 65996U 25231B   26064.12536731 -.00000087  00000+0  80588-4 0  9992
2 65996  49.9977 189.1542 0000626 187.7251 172.3611 13.29329357 19046
HULIANWANG DIGUI-89     
1 65997U 25231C   26064.10863598 -.00000084  00000+0  85883-4 0  9995
2 65997  49.9955 189.0414 0000636 188.6009 171.4852 13.29329935 19041
HULIANWANG DIGUI-90     
1 65998U 25231D   26063.72438609 -.00000099  00000+0  53662-4 0  9990
2 65998  49.9983 190.3795 0000610 187.5141 172.5722 13.29330047 18994
HULIANWANG DIGUI-91     
1 65999U 25231E   26064.09193056 -.00000094  00000+0  64247-4 0  9992
2 65999  50.0002 189.0119 0000626 187.9663 172.1199 13.29330005 19040
HULIANWANG DIGUI-92     
1 66000U 25231F   26064.15874624 -.00000084  00000+0  86718-4 0  9996
2 66000  50.0044 188.7440 0000621 189.4491 170.6369 13.29330583 19058
HULIANWANG DIGUI-93     
1 66001U 25231G   26064.14207361 -.00000094  00000+0  65620-4 0  9994
2 66001  50.0011 188.6242 0000607 188.0756 172.0106 13.29329653 19056
HULIANWANG DIGUI-94     
1 66002U 25231H   26064.15039480 -.00000092  00000+0  69036-4 0  9994
2 66002  50.0050 188.7121 0000626 190.1976 169.8884 13.29330805 19054
HULIANWANG DIGUI-95     
1 66003U 25231J   26064.13386369 -.00000092  00000+0  69703-4 0  9995
2 66003  50.0023 188.5956 0000628 186.4163 173.6701 13.29325779 19052
HULIANWANG DIGUI-96     
1 66412U 25258A   26063.93180987 -.00000053  00000+0  15268-3 0  9996
2 66412  50.0051 309.5543 0000391  95.6183 264.4734 13.29331440 15866
