[{"OBJECT_NAME":"HULIANWANG DIGUI-81","OBJECT_ID":"2025-187J","EPOCH":"2026-03-05T03:44:18.935808","MEAN_MOTION":13.29341391,"ECCENTRICITY":0.0001056,"INCLINATION":50.0056,"RA_OF_ASC_NODE":218.9376,"ARG_OF_PERICENTER":136.8232,"MEAN_ANOMALY":223.2723,"EPHEMERIS_TYPE":0,"CLASSIFICATION_TYPE":"U","NORAD_CAT_ID":65313,"ELEMENT_SET_NO":999,"REV_AT_EPOCH":2587,"BSTAR":5.6002e-5,"MEAN_MOTION_DOT":-9.8e-7,"MEAN_MOTION_DDOT":0},{"OBJECT_NAME":"HULIANWANG DIGUI-82","OBJECT_ID":"2025-220A","EPOCH":"2026-03-05T03:13:50.584800","MEAN_MOTION":13.24421805,"ECCENTRICITY":0.0002255,"INCLINATION":86.4896,"RA_OF_ASC_NODE":79.005,"ARG_OF_PERICENTER":100.8477,"MEAN_ANOMALY":259.2911,"EPHEMERIS_TYPE":0,"CLASSIFICATION_TYPE":"U","NORAD_CAT_ID":65817,"ELEMENT_SET_NO":999,"REV_AT_EPOCH":2114,"BSTAR":9.8708e-5,"MEAN_MOTION_DOT":5.7e-7,"MEAN_MOTION_DDOT":0},{"OBJECT_NAME":"HULIANWANG DIGUI-83","OBJECT_ID":"2025-220B","EPOCH":"2026-03-05T03:03:02.101824","MEAN_MOTION":13.24421,"ECCENTRICITY":0.0002249,"INCLINATION":86.4919,"RA_OF_ASC_NODE":79.0378,"ARG_OF_PERICENTER":100.8265,"MEAN_ANOMALY":259.3123,"EPHEMERIS_TYPE":0,"CLASSIFICATION_TYPE":"U","NORAD_CAT_ID":65818,"ELEMENT_SET_NO":999,"REV_AT_EPOCH":2114,"BSTAR":8.4147e-5,"MEAN_MOTION_DOT":5.1e-7,"MEAN_MOTION_DDOT":0},{"OBJECT_NAME":"HULIANWANG DIGUI-84","OBJECT_ID":"2025-220C","EPOCH":"2026-03-05T02:52:07.029984","MEAN_MOTION":13.2442144,"ECCENTRICITY":0.0002241,"INCLINATION":86.4856,"RA_OF_ASC_NODE":78.9314,"ARG_OF_PERICENTER":99.9096,"MEAN_ANOMALY":260.2291,"EPHEMERIS_TYPE":0,"CLASSIFICATION_TYPE":"U","NORAD_CAT_ID":65819,"ELEMENT_SET_NO":999,"REV_AT_EPOCH":2114,"BSTAR":6.1871e-5,"MEAN_MOTION_DOT":4.1e-7,"MEAN_MOTION_DDOT":0},{"OBJECT_NAME":"HULIANWANG DIGUI-85","OBJECT_ID":"2025-220D","EPOCH":"2026-03-05T02:41:10.315680","MEAN_MOTION":13.24421946,"ECCENTRICITY":0.0002237,"INCLINATION":86.4917,"RA_OF_ASC_NODE":79.028,"ARG_OF_PERICENTER":101.1656,"MEAN_ANOMALY":258.9729,"EPHEMERIS_TYPE":0,"CLASSIFICATION_TYPE":"U","NORAD_CAT_ID":65820,"ELEMENT_SET_NO":999,"REV_AT_EPOCH":2114,"BSTAR":1.9315e-5,"MEAN_MOTION_DOT":2.3e-7,"MEAN_MOTION_DDOT":0},{"OBJECT_NAME":"HULIANWANG DIGUI-86","OBJECT_ID":"2025-220E","EPOCH":"2026-03-05T04:19:12.481248","MEAN_MOTION":13.24420848,"ECCENTRICITY":0.0002233,"INCLINATION":86.4896,"RA_OF_ASC_NODE":78.9637,"ARG_OF_PERICENTER":100.8664,"MEAN_ANOMALY":259.2721,"EPHEMERIS_TYPE":0,"CLASSIFICATION_TYPE":"U","NORAD_CAT_ID":65821,"ELEMENT_SET_NO":999,"REV_AT_EPOCH":2115,"BSTAR":1.792e-5,"MEAN_MOTION_DOT":2.2e-7,"MEAN_MOTION_DDOT":0},{"OBJECT_NAME":"HULIANWANG DIGUI-87","OBJECT_ID":"2025-231A","EPOCH":"2026-03-05T02:48:28.074240","MEAN_MOTION":13.2933024,"ECCENTRICITY":6.1e-5,"INCLINATION":49.999,"RA_OF_ASC_NODE":189.1242,"ARG_OF_PERICENTER":182.3709,"MEAN_ANOMALY":177.716,"EPHEMERIS_TYPE":0,"CLASSIFICATION_TYPE":"U","NORAD_CAT_ID":65995,"ELEMENT_SET_NO":999,"REV_AT_EPOCH":1904,"BSTAR":5.5998e-5,"MEAN_MOTION_DOT":-9.8e-7,"MEAN_MOTION_DDOT":0},{"OBJECT_NAME":"HULIANWANG DIGUI-88","OBJECT_ID":"2025-231B","EPOCH":"2026-03-05T03:00:31.735584","MEAN_MOTION":13.29329357,"ECCENTRICITY":6.26e-5,"INCLINATION":49.9977,"RA_OF_ASC_NODE":189.1542,"ARG_OF_PERICENTER":187.7251,"MEAN_ANOMALY":172.3611,"EPHEMERIS_TYPE":0,"CLASSIFICATION_TYPE":"U","NORAD_CAT_ID":65996,"ELEMENT_SET_NO":999,"REV_AT_EPOCH":1904,"BSTAR":8.0588e-5,"MEAN_MOTION_DOT":-8.7e-7,"MEAN_MOTION_DDOT":0},{"OBJECT_NAME":"HULIANWANG DIGUI-89","OBJECT_ID":"2025-231C","EPOCH":"2026-03-05T02:36:26.148672","MEAN_MOTION":13.29329935,"ECCENTRICITY":6.36e-5,"INCLINATION":49.9955,"RA_OF_ASC_NODE":189.0414,"ARG_OF_PERICENTER":188.6009,"MEAN_ANOMALY":171.4852,"EPHEMERIS_TYPE":0,"CLASSIFICATION_TYPE":"U","NORAD_CAT_ID":65997,"ELEMENT_SET_NO":999,"REV_AT_EPOCH":1904,"BSTAR":8.5883e-5,"MEAN_MOTION_DOT":-8.4e-7,"MEAN_MOTION_DDOT":0},{"OBJECT_NAME":"HULIANWANG DIGUI-90","OBJECT_ID":"2025-231D","EPOCH":"2026-03-04T17:23:06.958176","MEAN_MOTION":13.29330047,"ECCENTRICITY":6.1e-5,"INCLINATION":49.9983,"RA_OF_ASC_NODE":190.3795,"ARG_OF_PERICENTER":187.5141,"MEAN_ANOMALY":172.5722,"EPHEMERIS_TYPE":0,"CLASSIFICATION_TYPE":"U","NORAD_CAT_ID":65998,"ELEMENT_SET_NO":999,"REV_AT_EPOCH":1899,"BSTAR":5.3662e-5,"MEAN_MOTION_DOT":-9.9e-7,"MEAN_MOTION_DDOT":0},{"OBJECT_NAME":"HULIANWANG DIGUI-91","OBJECT_ID":"2025-231E","EPOCH":"2026-03-05T02:12:22.800384","MEAN_MOTION":13.29330005,"ECCENTRICITY":6.26e-5,"INCLINATION":50.0002,"RA_OF_ASC_NODE":189.0119,"ARG_OF_PERICENTER":187.9663,"MEAN_ANOMALY":172.1199,"EPHEMERIS_TYPE":0,"CLASSIFICATION_TYPE":"U","NORAD_CAT_ID":65999,"ELEMENT_SET_NO":999,"REV_AT_EPOCH":1904,"BSTAR":6.4247e-5,"MEAN_MOTION_DOT":-9.4e-7,"MEAN_MOTION_DDOT":0},{"OBJECT_NAME":"HULIANWANG DIGUI-92","OBJECT_ID":"2025-231F","EPOCH":"2026-03-05T03:48:35.675136","MEAN_MOTION":13.29330583,"ECCENTRICITY":6.21e-5,"INCLINATION":50.0044,"RA_OF_ASC_NODE":188.744,"ARG_OF_PERICENTER":189.4491,"MEAN_ANOMALY":170.6369,"EPHEMERIS_TYPE":0,"CLASSIFICATION_TYPE":"U","NORAD_CAT_ID":66000,"ELEMENT_SET_NO":999,"REV_AT_EPOCH":1905,"BSTAR":8.6718e-5,"MEAN_MOTION_DOT":-8.4e-7,"MEAN_MOTION_DDOT":0},{"OBJECT_NAME":"HULIANWANG DIGUI-93","OBJECT_ID":"2025-231G","EPOCH":"2026-03-05T03:24:35.159904","MEAN_MOTION":13.29329653,"ECCENTRICITY":6.07e-5,"INCLINATION":50.0011,"RA_OF_ASC_NODE":188.6242,"ARG_OF_PERICENTER":188.0756,"MEAN_ANOMALY":172.0106,"EPHEMERIS_TYPE":0,"CLASSIFICATION_TYPE":"U","NORAD_CAT_ID":66001,"ELEMENT_SET_NO":999,"REV_AT_EPOCH":1905,"BSTAR":6.562e-5,"MEAN_MOTION_DOT":-9.4e-7,"MEAN_MOTION_DDOT":0},{"OBJECT_NAME":"HULIANWANG DIGUI-94","OBJECT_ID":"2025-231H","EPOCH":"2026-03-05T03:36:34.110720","MEAN_MOTION":13.29330805,"ECCENTRICITY":6.26e-5,"INCLINATION":50.005,"RA_OF_ASC_NODE":188.7121,"ARG_OF_PERICENTER":190.1976,"MEAN_ANOMALY":169.8884,"EPHEMERIS_TYPE":0,"CLASSIFICATION_TYPE":"U","NORAD_CAT_ID":66002,"ELEMENT_SET_NO":999,"REV_AT_EPOCH":1905,"BSTAR":6.9036e-5,"MEAN_MOTION_DOT":-9.2e-7,"MEAN_MOTION_DDOT":0},{"OBJECT_NAME":"HULIANWANG DIGUI-95","OBJECT_ID":"2025-231J","EPOCH":"2026-03-05T03:12:45.822816","MEAN_MOTION":13.29325779,"ECCENTRICITY":6.28e-5,"INCLINATION":50.0023,"RA_OF_ASC_NODE":188.5956,"ARG_OF_PERICENTER":186.4163,"MEAN_ANOMALY":173.6701,"EPHEMERIS_TYPE":0,"CLASSIFICATION_TYPE":"U","NORAD_CAT_ID":66003,"ELEMENT_SET_NO":999,"REV_AT_EPOCH":1905,"BSTAR":6.9703e-5,"MEAN_MOTION_DOT":-9.2e-7,"MEAN_MOTION_DDOT":0},{"OBJECT_NAME":"HULIANWANG DIGUI-96","OBJECT_ID":"2025-258A","EPOCH":"2026-03-04T22:21:48.372768","MEAN_MOTION":13.2933144,"ECCENTRICITY":3.91e-5,"INCLINATION":50.0051,"RA_OF_ASC_NODE":309.5543,"ARG_OF_PERICENTER":95.6183,"MEAN_ANOMALY":264.4734,"EPHEMERIS_TYPE":0,"CLASSIFICATION_TYPE":"U","NORAD_CAT_ID":66412,"ELEMENT_SET_NO":999,"REV_AT_EPOCH":1586,"BSTAR":0.00015268,"MEAN_MOTION_DOT":-5.3e-7,"MEAN_MOTION_DDOT":0}]
